[
  {
    "id" : 1,
    "description" : "Golf clubs",
    "sender" : {"name":"Kathleen Evans","address1":"94","address2":"Abbey Road","city":"Aberdeen","contactNumber":"03069 990725", "postCode":"RB27 9DV"},
    "recipient" : {"name":"Franklin Mao","address1":"7","address2":"Castle Court","city":"Canterbury","contactNumber":"03069 990634", "postCode":"MA99 3LY"}
  },
  {
    "id" : 2,
    "description" : "Socks",
    "sender" : {"name":"Chauncey Cullison","address1":"11","address2":"Caxton Street","city":"Chichester","contactNumber":"03069 990490", "postCode":"IV95 4KE"},
    "recipient" : {"name":"Cornell Hotaling","address1":"13","address2":"Dagmar Passage","city":"Edinburgh","contactNumber":"03069 990114", "postCode":"Z80 6TK"}
  },
  {
    "id" : 3,
    "description" : "Books",
    "sender" : {"name":"Elijah Sharma","address1":"12","address2":"Creek Street","city":"Durham","contactNumber":"07700 900755", "postCode":"G86 8VB"},
    "recipient" : {"name":"Brenton Fortney","address1":"2","address2":"Little Mason Street","city":"Glasgow","contactNumber":"07700 900804", "postCode":"I44 7DS"}
  },
  {
    "id" : 4,
    "description" : "Speakers",
    "sender" : {"name":"Issac Wiggins","address1":"14","address2":"Medland Street","city":"Lichfield","contactNumber":"07700 900539", "postCode":"K61 2BC"},
    "recipient" : {"name":"Genaro Koller","address1":"13","address2":"New Street","city":"Lisburn","contactNumber":"0117 496 0330", "postCode":"X56 8YP"}
  },
  {
    "id" : 5,
    "description" : "iPad",
    "sender" : {"name":"Edmund Bibb","address1":"53","address2":"Palace Street","city":"Liverpool","contactNumber":"0117 496 0097", "postCode":"LF34 2RU"},
    "recipient" : {"name":"Jimmy Manfredi","address1":"23","address2":"Pleasant Place","city":"Manchester","contactNumber":"0191 498 0492", "postCode":"VH63 5RW"}
  },
  {
    "id" : 6,
    "description" : "Camera",
    "sender" : {"name":"Damien Hockensmith","address1":"22","address2":"Regent Street","city":"Nottingham","contactNumber":"0191 498 0081", "postCode":"H76 8RA"},
    "recipient" : {"name":"Benedict Tingley","address1":"54","address2":"Ryders Court","city":"Peterborough","contactNumber":"0131 496 0983", "postCode":"NS64 1NH"}
  },
  {
    "id" : 7,
    "description" : "Blu ray player",
    "sender" : {"name":"Amado Jacques","address1":"12","address2":"St. John's Road","city":"Preston","contactNumber":"0141 496 0341", "postCode":"T69 4MP"},
    "recipient" : {"name":"Wilfred Ballantine","address1":"34","address2":"St. Stephen's Square","city":"Salford","contactNumber":"0113 496 0737", "postCode":"CU74 4VH"}
  },
  {
    "id" : 8,
    "description" : "Cutlery",
    "sender" : {"name":"Norris Mcmasters","address1":"2","address2":"Short Street","city":"Southampton","contactNumber":"020 7946 0315", "postCode":"RN60 2NY"},
    "recipient" : {"name":"Edgar Aikin","address1":"43","address2":"Tenter Street","city":"St Albans","contactNumber":"020 7946 0437", "postCode":"JW88 9MO"}
  }
]